[{"OBJECT_NAME":"STARLINK-30526","OBJECT_ID":"2023-153R","EPOCH":"2026-03-09T22:00:01.999584","MEAN_MOTION":15.24461669,"ECCENTRICITY":0.00015561,"INCLINATION":43.0036,"RA_OF_ASC_NODE":40.4247,"ARG_OF_PERICENTER":291.2242,"MEAN_ANOMALY":42.0233,"EPHEMERIS_TYPE":0,"CLASSIFICATION_TYPE":"U","NORAD_CAT_ID":58006,"ELEMENT_SET_NO":999,"REV_AT_EPOCH":578,"BSTAR":0.062041238,"MEAN_MOTION_DOT":0.01696229,"MEAN_MOTION_DDOT":0},{"OBJECT_NAME":"OBJECT A","OBJECT_ID":"2024-173A","EPOCH":"2026-03-09T22:34:47.770752","MEAN_MOTION":15.54654347,"ECCENTRICITY":0.00038308,"INCLINATION":97.3457,"RA_OF_ASC_NODE":153.1061,"ARG_OF_PERICENTER":237.8683,"MEAN_ANOMALY":122.22,"EPHEMERIS_TYPE":0,"CLASSIFICATION_TYPE":"U","NORAD_CAT_ID":61227,"ELEMENT_SET_NO":999,"REV_AT_EPOCH":8157,"BSTAR":0.0010780161,"MEAN_MOTION_DOT":0.00071816,"MEAN_MOTION_DDOT":0}]
